NUSAT-1 (FRESCO)        
1 41557U 16033B   22267.49433047  .00013471  00000+0  37513-3 0  9995
2 41557  97.3893   5.5113 0010568  29.0597  99.7149 15.36869468352588
BEESAT-4                
1 41619U 16040W   22267.11773046  .00017512  00000+0  54097-3 0  9993
2 41619  97.2073 315.2152 0010611 120.0909 240.1387 15.33537666335832
CAS-2T & KS-1Q          
1 41847U 16066G   22267.17143599  .00000573  00000+0  97110-4 0  9997
2 41847  98.5418 331.6986 0362143 274.5679  81.4236 14.38731339308542
NAYIF-1 (EO-88)         
1 42017U 17008BX  22267.13202065  .00021458  00000+0  58467-3 0  9990
2 42017  97.2602 331.9517 0003463 237.8940 122.1969 15.37493853312228
ZHUHAI-1 02 (CAS-4B)    
1 42759U 17034B   22267.51927037  .00004222  00000+0  25047-3 0  9995
2 42759  43.0173 146.4018 0009435 202.2596 223.8242 15.12532365291354
ZHUHAI-1 01 (CAS-4A)    
1 42761U 17034D   22267.16639530  .00003788  00000+0  22560-3 0  9990
2 42761  43.0174 147.0655 0009537 201.3763 296.6203 15.12606543291301
MAX VALIER SAT          
1 42778U 17036P   22266.83838617  .00008500  00000+0  31003-3 0  9999
2 42778  97.1971 304.5998 0009605 346.4249  13.6731 15.28351237291925
RADFXSAT (FOX-1B)       
1 43017U 17073E   22266.69657867  .00002985  00000+0  22694-3 0  9994
2 43017  97.6607 156.8477 0245310 225.7122 132.3739 14.82047552261663
FOX-1D (AO-92)          
1 43137U 18004AC  22267.16744295  .00011436  00000+0  38320-3 0  9991
2 43137  97.3621 341.5054 0007621  23.0591 337.0991 15.31059809261435
DIWATA-2B               
1 43678U 18084H   22267.48901643  .00001224  00000+0  12555-3 0  9992
2 43678  97.9842  42.0012 0009060 326.2626  33.7990 14.92320390212627
ES'HAIL 2               
1 43700U 18090A   22267.20327041  .00000142  00000+0  00000+0 0  9995
2 43700   0.0264 189.6462 0002096  28.7582 243.5955  1.00268547 14262
FOX-1CLIFF (AO-95)      
1 43770U 18099N   22267.13945003  .00002885  00000+0  25638-3 0  9991
2 43770  97.6131 330.9058 0012491 309.3788  50.6327 14.96842124207770
ITASAT 1                
1 43786U 18099AE  22266.79063415  .00002284  00000+0  20355-3 0  9991
2 43786  97.6144 331.5355 0013251 300.9253  59.0666 14.96923977207761
JY1SAT (JO-97)          
1 43803U 18099AX  22267.17397836  .00002599  00000+0  22747-3 0  9997
2 43803  97.6104 331.6973 0013517 297.3568  62.6278 14.97509723207845
UWE-4                   
1 43880U 18111E   22266.70155892  .00002990  00000+0  25374-3 0  9993
2 43880  97.6602 171.2790 0012022   2.3105 357.8171 14.98626617204413
NEXUS (FO-99)           
1 43937U 19003F   22266.62079022  .00012813  00000+0  40421-3 0  9993
2 43937  97.1240 296.2501 0020531 157.2662 202.9495 15.32779532205008
PSAT2 (NO-104)          
1 44354U 19036R   22264.60769923  .00099847 -40975-5  73572-3 0  9992
2 44354  28.5223 226.9788 0193775 342.2307  17.1592 15.50427783179564
JAISAT-1                
1 44419U 19038F   22267.44759233  .00009538  00000+0  46095-3 0  9990
2 44419  97.6459 238.5125 0019976 143.5699 216.6898 15.18673715178076
DUCHIFAT-3              
1 44854U 19089C   22267.26923479  .00003702  00000+0  28549-3 0  9995
2 44854  36.9654 234.2817 0009097 300.7497  59.2351 15.01644000152792
CAS-6 (TIANQIN 1)       
1 44881U 19093C   22267.50677953  .00000512  00000+0  71454-4 0  9990
2 44881  97.8874 345.2728 0014000 220.0463 139.9716 14.81823431149446
RS-44 & BREEZE-KM R/B   
1 44909U 19096E   22266.77932183  .00000030  00000+0  66957-4 0  9998
2 44909  82.5246 164.9690 0218394  89.8016 272.8107 12.79715038128088
ORBITAL FACTORY 2 (OF-2)
1 45113U 19071C   22266.77532886  .00034369  00000+0  60110-3 0  9991
2 45113  51.6354 293.9622 0007053 161.5630 198.5616 15.50281921148609
HUSKYSAT-1 (HO-107)     
1 45119U 19071J   22267.37401437  .00028529  00000+0  52829-3 0  9990
2 45119  51.6358 291.9275 0007406 160.1489 199.9789 15.48748874148675
BY70-2                  
1 45857U 20042B   22267.51949173  .00006403  00000+0  83488-3 0  9991
2 45857  97.9502 343.4601 0011458 150.6677 209.5174 14.80855162120118
SALSAT                  
1 46495U 20068K   22266.78375055  .00003114  00000+0  22408-3 0  9999
2 46495  97.7354 208.1632 0015122 308.1067  51.8795 15.04887112108970
BY70-3                  
1 46839U 20079N   22267.42039021  .00026682  00000+0  54651-3 0  9995
2 46839  97.1894 338.4311 0004362 344.0098 144.8052 15.46053361105516
RADFXSAT-2 (AO-109)     
1 47311U 21002C   22267.47488624  .00009393  00000+0  35948-3 0  9998
2 47311  60.6870 349.1085 0033412  42.1888 318.1763 15.26716942 93586
UVSQ-SAT                
1 47438U 21006AB  22266.68295897  .00005518  00000+0  28492-3 0  9993
2 47438  97.4282 323.6876 0010061 296.8481  63.1724 15.16668667 92164
DIY-1 (ARDUIQUBE)       
1 47963U 21022AH  22266.24712571  .00016496  00000+0  85504-3 0  9993
2 47963  97.5212 166.5924 0017048 146.9901 213.2400 15.16122861 81756
XW-3 (CAS-9)            
1 50466U 21131B   22267.49843397  .00000181  00000+0  73782-4 0  9995
2 50466  98.5751 344.6800 0004327 199.3115 160.7909 14.38528147 39151
TEVEL-3                 
1 50988U 22002E   22267.44899454  .00007311  00000+0  38828-3 0  9995
2 50988  97.4731 332.8056 0010841  82.5442  47.5630 15.15558830 38400
TEVEL-8                 
1 50989U 22002F   22267.45587356  .00007279  00000+0  38716-3 0  9991
2 50989  97.4747 332.8402 0010980  81.9064  39.1531 15.15505113 38403
TEVEL-5                 
1 50998U 22002Q   22267.43662698  .00007370  00000+0  38570-3 0  9992
2 50998  97.4720 332.9453 0012214  79.2680  43.5791 15.16062796 38411
TEVEL-6                 
1 50999U 22002R   22267.43586410  .00007401  00000+0  38726-3 0  9998
2 50999  97.4720 332.9416 0012246  79.8856  42.3022 15.16068355 38418
TEVEL-1                 
1 51013U 22002AF  22267.45160074  .00007284  00000+0  38717-3 0  9991
2 51013  97.4731 332.7821 0010884  84.2851  38.9749 15.15531464 38408
TEVEL-7                 
1 51062U 22002CG  22267.45772959  .00007267  00000+0  38664-3 0  9998
2 51062  97.4745 332.8267 0010941  82.5623  38.4353 15.15498029 38409
TEVEL-4                 
1 51063U 22002CH  22267.45876934  .00007242  00000+0  38541-3 0  9994
2 51063  97.4745 332.8242 0010927  82.8483  38.0881 15.15487209 38404
TEVEL-2                 
1 51069U 22002CP  22267.44925331  .00007311  00000+0  38836-3 0  9999
2 51069  97.4726 332.7901 0010877  84.0364  39.3937 15.15551853 38409
GREENCUBE               
1 53106U 22080B   22267.36993488 -.00000003  00000+0  00000+0 0  9998
2 53106  70.1616  52.0631 0008654 241.1549 118.8242  6.42557865  4675
YUZGU 9 (RS3S)          
1 53308U 98067TT  22267.05846076  .00063383  00000+0  92740-3 0  9991
2 53308  51.6397 205.7203 0001791 188.2123 171.8839 15.54990969 10076
YUZGU 7 (RS1S)          
1 53309U 98067TU  22267.24832397  .00057593  00000+0  83850-3 0  9992
2 53309  51.6394 204.7366 0001433 214.2549 145.8350 15.55167969 10052
YUZGU 11 (RS5S)         
1 53310U 98067TV  22267.25091766  .00056892  00000+0  83303-3 0  9996
2 53310  51.6398 204.7567 0001294 207.4938 152.5984 15.55017789 10087
YUZGU 12 (RS6S)         
1 53311U 98067TW  22267.24331128  .00061135  00000+0  88234-3 0  9999
2 53311  51.6393 204.7029 0002277 180.0051 180.0940 15.55379037 10108
TSIOLKOVSKY-RYAZAN 1 (*)
1 53312U 98067TX  22267.24642865  .00059056  00000+0  85903-3 0  9992
2 53312  51.6397 204.7256 0001346 224.4561 135.6322 15.55181753 10049
TSIOLKOVSKY-RYAZAN 2 (*)
1 53313U 98067TY  22267.24464975  .00058710  00000+0  85257-3 0  9995
2 53313  51.6398 204.7141 0000963 210.2914 149.8022 15.55229847 10099
YUZGU 10 (RS4S)         
1 53321U 98067TZ  22266.99419587  .00067258  00000+0  98093-3 0  9993
2 53321  51.6398 206.0439 0001612 193.6158 166.4790 15.55054035 10057
RS29S (SXC3-2110 CYCLO*)
1 53373U 22096D   22267.52498806  .00009219  00000+0  37077-3 0  9998
2 53373  97.4315 168.6486 0003356  57.7930  44.5145 15.25123779  7045
RS32S (SXC3-212 MONITO*)
1 53374U 22096E   22267.45841803  .00009329  00000+0  37389-3 0  9998
2 53374  97.4318 168.5902 0003174  54.0426  61.0200 15.25237045  7036
RS34S (SXC3-218 KUZBAS*)
1 53375U 22096F   22267.45879558  .00008153  00000+0  32787-3 0  9998
2 53375  97.4315 168.5898 0002994  53.5148  61.5433 15.25168825  7034
RS23S (SXC3-21 UTMN)    
1 53376U 22096G   22267.45795537  .00008021  00000+0  32244-3 0  9995
2 53376  97.4313 168.5912 0002968  52.3774  63.1617 15.25184521  7036
RS28S (SXC3-214 MIET-A*)
1 53377U 22096H   22267.45681743  .00007712  00000+0  30981-3 0  9991
2 53377  97.4313 168.5926 0003009  50.5348  63.9996 15.25219748  7034
RS26S (KAI-1)           
1 53378U 22096J   22267.45655294  .00006739  00000+0  27134-3 0  9998
2 53378  97.4323 168.5930 0002696  50.8126  64.8057 15.25193441  7038
RS19S (SXC3-219 ISOI)   
1 53381U 22096M   22267.49869071  .00007924  00000+0  31405-3 0  9999
2 53381  97.4312 168.6645 0002411 314.4415 103.1540 15.25664835  7044
RS21S (CUBESX-HSE-2)    
1 53383U 22096P   22267.44094116  .00007382  00000+0  29244-3 0  9992
2 53383  97.4309 168.6112 0002458 309.4518 160.5500 15.25708825  7030
RS30S (SXC3-217 SIREN)  
1 53384U 22096Q   22267.44059973  .00007550  00000+0  29903-3 0  9994
2 53384  97.4317 168.6112 0002751 308.5922 161.4549 15.25705329  7034
RS20S (GEOSCAN-EDELVEIS)
1 53385U 22096R   22267.43452652  .00009505  00000+0  37226-3 0  9994
2 53385  97.4311 168.6193 0002895 308.2466 162.2071 15.26007510  7067
RS33S (SXC3-215 VIZARD) 
1 53386U 22096S   22267.49139462  .00011613  00000+0  44923-3 0  9997
2 53386  97.4308 168.6935 0003786 306.5382 159.6023 15.26361940  7063
